[{"OBJECT_NAME":"STARLINK-36710","OBJECT_ID":"2026-038L","EPOCH":"2026-03-05T14:00:01.999872","MEAN_MOTION":16.01666932,"ECCENTRICITY":0.00010906,"INCLINATION":97.2748,"RA_OF_ASC_NODE":74.547,"ARG_OF_PERICENTER":108.3957,"MEAN_ANOMALY":159.0386,"EPHEMERIS_TYPE":0,"CLASSIFICATION_TYPE":"U","NORAD_CAT_ID":67971,"ELEMENT_SET_NO":999,"REV_AT_EPOCH":253,"BSTAR":-0.0026353014,"MEAN_MOTION_DOT":-0.01458616,"MEAN_MOTION_DDOT":0.00067180432},{"OBJECT_NAME":"STARLINK-36894","OBJECT_ID":"2026-038M","EPOCH":"2026-03-05T14:00:01.999872","MEAN_MOTION":16.01807307,"ECCENTRICITY":0.00011734,"INCLINATION":97.2744,"RA_OF_ASC_NODE":74.5481,"ARG_OF_PERICENTER":90.8869,"MEAN_ANOMALY":179.1282,"EPHEMERIS_TYPE":0,"CLASSIFICATION_TYPE":"U","NORAD_CAT_ID":67972,"ELEMENT_SET_NO":999,"REV_AT_EPOCH":253,"BSTAR":-0.002639332,"MEAN_MOTION_DOT":-0.01472591,"MEAN_MOTION_DDOT":0.0006849142},{"OBJECT_NAME":"STARLINK-36900","OBJECT_ID":"2026-038N","EPOCH":"2026-03-05T14:00:01.999872","MEAN_MOTION":16.02061581,"ECCENTRICITY":0.00010956,"INCLINATION":97.2744,"RA_OF_ASC_NODE":74.55,"ARG_OF_PERICENTER":103.5402,"MEAN_ANOMALY":171.6441,"EPHEMERIS_TYPE":0,"CLASSIFICATION_TYPE":"U","NORAD_CAT_ID":67973,"ELEMENT_SET_NO":999,"REV_AT_EPOCH":253,"BSTAR":-0.0025838087,"MEAN_MOTION_DOT":-0.01463089,"MEAN_MOTION_DDOT":0.00067872232},{"OBJECT_NAME":"STARLINK-36901","OBJECT_ID":"2026-038P","EPOCH":"2026-03-05T14:00:01.999872","MEAN_MOTION":16.0192528,"ECCENTRICITY":0.00011232,"INCLINATION":97.2744,"RA_OF_ASC_NODE":74.5487,"ARG_OF_PERICENTER":87.1163,"MEAN_ANOMALY":185.3581,"EPHEMERIS_TYPE":0,"CLASSIFICATION_TYPE":"U","NORAD_CAT_ID":67974,"ELEMENT_SET_NO":999,"REV_AT_EPOCH":253,"BSTAR":-0.0026104108,"MEAN_MOTION_DOT":-0.0146649,"MEAN_MOTION_DDOT":0.00068058335},{"OBJECT_NAME":"STARLINK-36883","OBJECT_ID":"2026-038Q","EPOCH":"2026-03-05T14:00:01.999872","MEAN_MOTION":16.02589752,"ECCENTRICITY":0.0001132,"INCLINATION":97.2738,"RA_OF_ASC_NODE":74.5545,"ARG_OF_PERICENTER":84.3288,"MEAN_ANOMALY":201.319,"EPHEMERIS_TYPE":0,"CLASSIFICATION_TYPE":"U","NORAD_CAT_ID":67975,"ELEMENT_SET_NO":999,"REV_AT_EPOCH":253,"BSTAR":-0.0024980515,"MEAN_MOTION_DOT":-0.01458742,"MEAN_MOTION_DDOT":0.0006791506},{"OBJECT_NAME":"STARLINK-36880","OBJECT_ID":"2026-038R","EPOCH":"2026-03-05T14:00:01.999872","MEAN_MOTION":16.02195808,"ECCENTRICITY":0.00011345,"INCLINATION":97.2741,"RA_OF_ASC_NODE":74.5511,"ARG_OF_PERICENTER":93.5677,"MEAN_ANOMALY":184.2513,"EPHEMERIS_TYPE":0,"CLASSIFICATION_TYPE":"U","NORAD_CAT_ID":67976,"ELEMENT_SET_NO":999,"REV_AT_EPOCH":253,"BSTAR":-0.002568065,"MEAN_MOTION_DOT":-0.01465528,"MEAN_MOTION_DDOT":0.00068188826},{"OBJECT_NAME":"STARLINK-36904","OBJECT_ID":"2026-038S","EPOCH":"2026-03-05T14:00:01.999872","MEAN_MOTION":16.02453548,"ECCENTRICITY":0.0001199,"INCLINATION":97.2737,"RA_OF_ASC_NODE":74.553,"ARG_OF_PERICENTER":83.7952,"MEAN_ANOMALY":199.233,"EPHEMERIS_TYPE":0,"CLASSIFICATION_TYPE":"U","NORAD_CAT_ID":67977,"ELEMENT_SET_NO":999,"REV_AT_EPOCH":253,"BSTAR":-0.0025111118,"MEAN_MOTION_DOT":-0.01454822,"MEAN_MOTION_DDOT":0.00067469161},{"OBJECT_NAME":"STARLINK-36364","OBJECT_ID":"2026-038T","EPOCH":"2026-03-05T14:00:01.999872","MEAN_MOTION":16.02904966,"ECCENTRICITY":0.00010659,"INCLINATION":97.2733,"RA_OF_ASC_NODE":74.557,"ARG_OF_PERICENTER":105.9657,"MEAN_ANOMALY":185.8055,"EPHEMERIS_TYPE":0,"CLASSIFICATION_TYPE":"U","NORAD_CAT_ID":67978,"ELEMENT_SET_NO":999,"REV_AT_EPOCH":253,"BSTAR":-0.0024355603,"MEAN_MOTION_DOT":-0.0144883,"MEAN_MOTION_DDOT":0.00067308312},{"OBJECT_NAME":"STARLINK-36359","OBJECT_ID":"2026-038U","EPOCH":"2026-03-05T14:00:01.999872","MEAN_MOTION":16.02302122,"ECCENTRICITY":0.0001082,"INCLINATION":97.2738,"RA_OF_ASC_NODE":74.5515,"ARG_OF_PERICENTER":100.9592,"MEAN_ANOMALY":179.0736,"EPHEMERIS_TYPE":0,"CLASSIFICATION_TYPE":"U","NORAD_CAT_ID":67979,"ELEMENT_SET_NO":999,"REV_AT_EPOCH":253,"BSTAR":-0.0025386915,"MEAN_MOTION_DOT":-0.01457827,"MEAN_MOTION_DDOT":0.00067608372},{"OBJECT_NAME":"STARLINK-36882","OBJECT_ID":"2026-038V","EPOCH":"2026-03-05T14:00:01.999872","MEAN_MOTION":16.02751255,"ECCENTRICITY":0.00011259,"INCLINATION":97.2734,"RA_OF_ASC_NODE":74.5556,"ARG_OF_PERICENTER":89.6086,"MEAN_ANOMALY":199.2526,"EPHEMERIS_TYPE":0,"CLASSIFICATION_TYPE":"U","NORAD_CAT_ID":67980,"ELEMENT_SET_NO":999,"REV_AT_EPOCH":253,"BSTAR":-0.0024488347,"MEAN_MOTION_DOT":-0.01443741,"MEAN_MOTION_DDOT":0.0006674996},{"OBJECT_NAME":"STARLINK-36874","OBJECT_ID":"2026-038W","EPOCH":"2026-03-05T14:00:01.999872","MEAN_MOTION":16.02990104,"ECCENTRICITY":0.0001097,"INCLINATION":97.2734,"RA_OF_ASC_NODE":74.5578,"ARG_OF_PERICENTER":92.0988,"MEAN_ANOMALY":201.8485,"EPHEMERIS_TYPE":0,"CLASSIFICATION_TYPE":"U","NORAD_CAT_ID":67981,"ELEMENT_SET_NO":999,"REV_AT_EPOCH":253,"BSTAR":-0.0023799759,"MEAN_MOTION_DOT":-0.0142316,"MEAN_MOTION_DDOT":0.00065177073},{"OBJECT_NAME":"STARLINK-36879","OBJECT_ID":"2026-038X","EPOCH":"2026-03-05T14:00:01.999872","MEAN_MOTION":16.03143894,"ECCENTRICITY":0.00010219,"INCLINATION":97.2731,"RA_OF_ASC_NODE":74.5589,"ARG_OF_PERICENTER":82.8539,"MEAN_ANOMALY":213.6958,"EPHEMERIS_TYPE":0,"CLASSIFICATION_TYPE":"U","NORAD_CAT_ID":67982,"ELEMENT_SET_NO":999,"REV_AT_EPOCH":253,"BSTAR":-0.002405671,"MEAN_MOTION_DOT":-0.01451238,"MEAN_MOTION_DDOT":0.00067706776},{"OBJECT_NAME":"STARLINK-36867","OBJECT_ID":"2026-038Y","EPOCH":"2026-03-05T14:00:01.999872","MEAN_MOTION":16.03402508,"ECCENTRICITY":0.00010771,"INCLINATION":97.273,"RA_OF_ASC_NODE":74.5614,"ARG_OF_PERICENTER":82.6958,"MEAN_ANOMALY":219.1774,"EPHEMERIS_TYPE":0,"CLASSIFICATION_TYPE":"U","NORAD_CAT_ID":67983,"ELEMENT_SET_NO":999,"REV_AT_EPOCH":253,"BSTAR":-0.0023327998,"MEAN_MOTION_DOT":-0.01429156,"MEAN_MOTION_DDOT":0.00066007822},{"OBJECT_NAME":"STARLINK-36266","OBJECT_ID":"2026-038Z","EPOCH":"2026-03-05T14:00:01.999872","MEAN_MOTION":16.03278528,"ECCENTRICITY":0.00011257,"INCLINATION":97.2731,"RA_OF_ASC_NODE":74.5604,"ARG_OF_PERICENTER":76.8547,"MEAN_ANOMALY":222.6129,"EPHEMERIS_TYPE":0,"CLASSIFICATION_TYPE":"U","NORAD_CAT_ID":67984,"ELEMENT_SET_NO":999,"REV_AT_EPOCH":250,"BSTAR":-0.0023369083,"MEAN_MOTION_DOT":-0.01421343,"MEAN_MOTION_DDOT":0.00065244264},{"OBJECT_NAME":"STARLINK-36802","OBJECT_ID":"2026-038AA","EPOCH":"2026-03-05T14:00:01.999872","MEAN_MOTION":16.03520108,"ECCENTRICITY":0.00010816,"INCLINATION":97.2728,"RA_OF_ASC_NODE":74.5621,"ARG_OF_PERICENTER":110.7801,"MEAN_ANOMALY":193.2917,"EPHEMERIS_TYPE":0,"CLASSIFICATION_TYPE":"U","NORAD_CAT_ID":67985,"ELEMENT_SET_NO":999,"REV_AT_EPOCH":253,"BSTAR":-0.0023319798,"MEAN_MOTION_DOT":-0.01438502,"MEAN_MOTION_DDOT":0.00066903918},{"OBJECT_NAME":"STARLINK-36535","OBJECT_ID":"2026-039A","EPOCH":"2026-03-05T14:00:01.999872","MEAN_MOTION":15.96284654,"ECCENTRICITY":0.0001733,"INCLINATION":42.9979,"RA_OF_ASC_NODE":80.4059,"ARG_OF_PERICENTER":272.2359,"MEAN_ANOMALY":358.0519,"EPHEMERIS_TYPE":0,"CLASSIFICATION_TYPE":"U","NORAD_CAT_ID":67986,"ELEMENT_SET_NO":999,"REV_AT_EPOCH":221,"BSTAR":-0.0034716748,"MEAN_MOTION_DOT":-0.01496384,"MEAN_MOTION_DDOT":0.00065925398}]
